{
  "type": "FeatureCollection",
  "features": [
    {
      "type": "Feature",
      "properties": {
        "norad_id": 35616,
        "name": "IRIDIUM 33 DEB",
        "group": "iridium-33-debris",
        "lat": -86.30440571456076,
        "lon": -110.32423577567471,
        "alt_km": 631.022548395531,
        "timestamp": "2025-12-05T19:30:25.951906+00:00",
        "meta_object_name": "IRIDIUM 33 DEB",
        "meta_object_id": "1997-051QN",
        "meta_epoch": "2025-12-01T18:38:49.911648",
        "meta_mean_motion": 14.81359224,
        "meta_eccentricity": 0.00086191,
        "meta_inclination": 86.3548,
        "meta_ra_of_asc_node": 350.7677,
        "meta_arg_of_pericenter": 204.4295,
        "meta_mean_anomaly": 155.6519,
        "meta_ephemeris_type": 0,
        "meta_classification_type": "U",
        "meta_norad_cat_id": 35616,
        "meta_element_set_no": 999,
        "meta_rev_at_epoch": 87412,
        "meta_bstar": 0.0016385024,
        "meta_mean_motion_dot": 0.00012841,
        "meta_mean_motion_ddot": 0,
        "tle_line1": "1 35616U 97051QN  25335.77696657  .00012841  00000+0  16385-2 0  9994",
        "tle_line2": "2 35616  86.3548 350.7677 0008619 204.4295 155.6519 14.81359224874125"
      },
      "geometry": {
        "type": "Point",
        "coordinates": [
          -110.32423577567471,
          -86.30440571456076
        ]
      }
    },
    {
      "type": "Feature",
      "properties": {
        "norad_id": 35618,
        "name": "IRIDIUM 33 DEB",
        "group": "iridium-33-debris",
        "lat": 47.389527002710146,
        "lon": 0.5192267877459618,
        "alt_km": 692.749408614769,
        "timestamp": "2025-12-05T19:30:25.951929+00:00",
        "meta_object_name": "IRIDIUM 33 DEB",
        "meta_object_id": "1997-051QQ",
        "meta_epoch": "2025-12-05T07:42:53.148672",
        "meta_mean_motion": 14.52258119,
        "meta_eccentricity": 0.00302089,
        "meta_inclination": 86.3407,
        "meta_ra_of_asc_node": 356.7447,
        "meta_arg_of_pericenter": 46.3254,
        "meta_mean_anomaly": 314.0448,
        "meta_ephemeris_type": 0,
        "meta_classification_type": "U",
        "meta_norad_cat_id": 35618,
        "meta_element_set_no": 999,
        "meta_rev_at_epoch": 65286,
        "meta_bstar": 0.00091388234,
        "meta_mean_motion_dot": 3.753e-05,
        "meta_mean_motion_ddot": 0,
        "tle_line1": "1 35618U 97051QQ  25339.32144848  .00003753  00000+0  91388-3 0  9990",
        "tle_line2": "2 35618  86.3407 356.7447 0030208  46.3254 314.0448 14.52258119652865"
      },
      "geometry": {
        "type": "Point",
        "coordinates": [
          0.5192267877459618,
          47.389527002710146
        ]
      }
    },
    {
      "type": "Feature",
      "properties": {
        "norad_id": 35620,
        "name": "IRIDIUM 33 DEB",
        "group": "iridium-33-debris",
        "lat": 30.46996254186046,
        "lon": -137.49621845467016,
        "alt_km": 796.691389838792,
        "timestamp": "2025-12-05T19:30:25.951941+00:00",
        "meta_object_name": "IRIDIUM 33 DEB",
        "meta_object_id": "1997-051QS",
        "meta_epoch": "2025-12-03T22:15:44.389440",
        "meta_mean_motion": 14.37533954,
        "meta_eccentricity": 0.01447571,
        "meta_inclination": 86.3881,
        "meta_ra_of_asc_node": 221.1686,
        "meta_arg_of_pericenter": 287.9324,
        "meta_mean_anomaly": 70.6136,
        "meta_ephemeris_type": 0,
        "meta_classification_type": "U",
        "meta_norad_cat_id": 35620,
        "meta_element_set_no": 999,
        "meta_rev_at_epoch": 59839,
        "meta_bstar": 0.012608603,
        "meta_mean_motion_dot": 0.00042859,
        "meta_mean_motion_ddot": 0,
        "tle_line1": "1 35620U 97051QS  25337.92759710  .00042859  00000+0  12609-1 0  9994",
        "tle_line2": "2 35620  86.3881 221.1686 0144757 287.9324  70.6136 14.37533954598392"
      },
      "geometry": {
        "type": "Point",
        "coordinates": [
          -137.49621845467016,
          30.46996254186046
        ]
      }
    },
    {
      "type": "Feature",
      "properties": {
        "norad_id": 35622,
        "name": "IRIDIUM 33 DEB",
        "group": "iridium-33-debris",
        "lat": -85.14273926154533,
        "lon": 138.361964601842,
        "alt_km": 565.2198037291291,
        "timestamp": "2025-12-05T19:30:25.951952+00:00",
        "meta_object_name": "IRIDIUM 33 DEB",
        "meta_object_id": "1997-051QU",
        "meta_epoch": "2025-12-05T06:13:24.261312",
        "meta_mean_motion": 15.03282895,
        "meta_eccentricity": 0.00108243,
        "meta_inclination": 86.2057,
        "meta_ra_of_asc_node": 267.2847,
        "meta_arg_of_pericenter": 9.444,
        "meta_mean_anomaly": 144.1334,
        "meta_ephemeris_type": 0,
        "meta_classification_type": "U",
        "meta_norad_cat_id": 35622,
        "meta_element_set_no": 999,
        "meta_rev_at_epoch": 87247,
        "meta_bstar": 0.0080362774,
        "meta_mean_motion_dot": 0.00110602,
        "meta_mean_motion_ddot": 0,
        "tle_line1": "1 35622U 97051QU  25339.25930858  .00110602  00000+0  80363-2 0  9993",
        "tle_line2": "2 35622  86.2057 267.2847 0010824   9.4440 144.1334 15.03282895872471"
      },
      "geometry": {
        "type": "Point",
        "coordinates": [
          138.361964601842,
          -85.14273926154533
        ]
      }
    },
    {
      "type": "Feature",
      "properties": {
        "norad_id": 35628,
        "name": "IRIDIUM 33 DEB",
        "group": "iridium-33-debris",
        "lat": -73.95110984448556,
        "lon": -0.6282371656829214,
        "alt_km": 675.4430995128369,
        "timestamp": "2025-12-05T19:30:25.951962+00:00",
        "meta_object_name": "IRIDIUM 33 DEB",
        "meta_object_id": "1997-051RA",
        "meta_epoch": "2025-12-04T09:28:36.488064",
        "meta_mean_motion": 14.67394134,
        "meta_eccentricity": 0.001144,
        "meta_inclination": 86.3576,
        "meta_ra_of_asc_node": 12.797,
        "meta_arg_of_pericenter": 12.0998,
        "meta_mean_anomaly": 348.0488,
        "meta_ephemeris_type": 0,
        "meta_classification_type": "U",
        "meta_norad_cat_id": 35628,
        "meta_element_set_no": 999,
        "meta_rev_at_epoch": 86324,
        "meta_bstar": 0.0032445,
        "meta_mean_motion_dot": 0.00018408,
        "meta_mean_motion_ddot": 0,
        "tle_line1": "1 35628U 97051RA  25338.39486676  .00018408  00000+0  32445-2 0  9996",
        "tle_line2": "2 35628  86.3576  12.7970 0011440  12.0998 348.0488 14.67394134863246"
      },
      "geometry": {
        "type": "Point",
        "coordinates": [
          -0.6282371656829214,
          -73.95110984448556
        ]
      }
    },
    {
      "type": "Feature",
      "properties": {
        "norad_id": 35631,
        "name": "IRIDIUM 33 DEB",
        "group": "iridium-33-debris",
        "lat": -35.076306573273044,
        "lon": 21.403030815475127,
        "alt_km": 753.6709222921527,
        "timestamp": "2025-12-05T19:30:25.951972+00:00",
        "meta_object_name": "IRIDIUM 33 DEB",
        "meta_object_id": "1997-051RD",
        "meta_epoch": "2025-12-03T09:41:09.224736",
        "meta_mean_motion": 14.47269337,
        "meta_eccentricity": 0.00180664,
        "meta_inclination": 86.3684,
        "meta_ra_of_asc_node": 24.9956,
        "meta_arg_of_pericenter": 146.4986,
        "meta_mean_anomaly": 234.0079,
        "meta_ephemeris_type": 0,
        "meta_classification_type": "U",
        "meta_norad_cat_id": 35631,
        "meta_element_set_no": 999,
        "meta_rev_at_epoch": 87062,
        "meta_bstar": 0.0005063782,
        "meta_mean_motion_dot": 1.875e-05,
        "meta_mean_motion_ddot": 0,
        "tle_line1": "1 35631U 97051RD  25337.40357899  .00001875  00000+0  50638-3 0  9990",
        "tle_line2": "2 35631  86.3684  24.9956 0018066 146.4986 234.0079 14.47269337870623"
      },
      "geometry": {
        "type": "Point",
        "coordinates": [
          21.403030815475127,
          -35.076306573273044
        ]
      }
    },
    {
      "type": "Feature",
      "properties": {
        "norad_id": 35680,
        "name": "IRIDIUM 33 DEB",
        "group": "iridium-33-debris",
        "lat": -53.004825895132036,
        "lon": -150.21854004309884,
        "alt_km": 787.8340772974389,
        "timestamp": "2025-12-05T19:30:25.951983+00:00",
        "meta_object_name": "IRIDIUM 33 DEB",
        "meta_object_id": "1997-051RJ",
        "meta_epoch": "2025-12-01T22:00:09.279648",
        "meta_mean_motion": 14.20616647,
        "meta_eccentricity": 0.01501261,
        "meta_inclination": 86.103,
        "meta_ra_of_asc_node": 26.3138,
        "meta_arg_of_pericenter": 313.2693,
        "meta_mean_anomaly": 168.1986,
        "meta_ephemeris_type": 0,
        "meta_classification_type": "U",
        "meta_norad_cat_id": 35680,
        "meta_element_set_no": 999,
        "meta_rev_at_epoch": 60547,
        "meta_bstar": 0.0036692718,
        "meta_mean_motion_dot": 8.864e-05,
        "meta_mean_motion_ddot": 0,
        "tle_line1": "1 35680U 97051RJ  25335.91677407  .00008864  00000+0  36693-2 0  9997",
        "tle_line2": "2 35680  86.1030  26.3138 0150126 313.2693 168.1986 14.20616647605475"
      },
      "geometry": {
        "type": "Point",
        "coordinates": [
          -150.21854004309884,
          -53.004825895132036
        ]
      }
    }
  ]
}